{"type":"FeatureCollection","features":[{"type":"Feature","properties":{},"geometry":{"type":"Polygon","coordinates":[[[102.065763,0.817968],[102.06649,0.815872],[102.06688,0.813149],[102.066859,0.810643],[102.066806,0.810218],[102.065853,0.806247],[102.064173,0.801354],[102.063642,0.800007],[102.066082,0.798977],[102.067272,0.798101],[102.0691,0.79743],[102.070106,0.796246],[102.072328,0.79525],[102.074741,0.794429],[102.076807,0.793201],[102.078685,0.791565],[102.08244,0.787675],[102.083827,0.787189],[102.085494,0.787059],[102.100182,0.782544],[102.142281,0.776981],[102.147636,0.783674],[102.198205,0.78377],[102.155595,0.820845],[102.113919,0.820939],[102.109698,0.820775],[102.107057,0.819881],[102.104883,0.818647],[102.101733,0.817796],[102.098991,0.817139],[102.096469,0.81756],[102.094092,0.818101],[102.092868,0.817737],[102.091994,0.817649],[102.090637,0.817759],[102.089805,0.817552],[102.08842,0.817498],[102.087355,0.817371],[102.085988,0.817342],[102.083695,0.817681],[102.082925,0.817703],[102.082329,0.817621],[102.081221,0.817319],[102.079321,0.817154],[102.077113,0.815202],[102.075587,0.815224],[102.074385,0.814803],[102.073824,0.814589],[102.072969,0.815278],[102.071073,0.815503],[102.070329,0.8161],[102.069718,0.817493],[102.069023,0.817933],[102.068225,0.818273],[102.067035,0.818327],[102.065763,0.817968]]]}}]}